{"type": "FeatureCollection", "features": [ {"type": "Feature", "properties": {"norad_id": 43108, "name": "BEIDOU-3 M8 (C28)", "group": "beidou", "lat": 52.980076774915084, "lon": 57.271143244409366, "alt_km": 21534.62554418379, "timestamp": "2025-12-23T20:42:37.340919+00:00", "meta": {"OBJECT_NAME": "BEIDOU-3 M8 (C28)", "OBJECT_ID": "2018-003B", "EPOCH": "2025-12-23T04:11:55.355136", "MEAN_MOTION": 1.86231118, "ECCENTRICITY": 0.00045869, "INCLINATION": 54.4802, "RA_OF_ASC_NODE": 308.4348, "ARG_OF_PERICENTER": 278.9101, "MEAN_ANOMALY": 81.0404, "EPHEMERIS_TYPE": 0, "CLASSIFICATION_TYPE": "U", "NORAD_CAT_ID": 43108, "ELEMENT_SET_NO": 999, "REV_AT_EPOCH": 5408, "BSTAR": 0, "MEAN_MOTION_DOT": -5.5e-07, "MEAN_MOTION_DDOT": 0}, "tle": {"line1": "1 43108U 18003B   25357.17494624 -.00000055  00000+0  00000+0 0  9996", "line2": "2 43108  54.4802 308.4348 0004586 278.9101  81.0404  1.86231118 54087"}}, "geometry": {"type": "Point", "coordinates": [57.271143244409366, 52.980076774915084]}}, {"type": "Feature", "properties": {"norad_id": 43207, "name": "BEIDOU-3 M4 (C22)", "group": "beidou", "lat": 12.486476173140856, "lon": -119.4689870914233, "alt_km": 21537.7166136851, "timestamp": "2025-12-23T20:42:37.340939+00:00", "meta": {"OBJECT_NAME": "BEIDOU-3 M4 (C22)", "OBJECT_ID": "2018-018A", "EPOCH": "2025-12-22T00:08:46.770432", "MEAN_MOTION": 1.86231216, "ECCENTRICITY": 0.00041705, "INCLINATION": 56.4932, "RA_OF_ASC_NODE": 68.9979, "ARG_OF_PERICENTER": 3.572, "MEAN_ANOMALY": 356.4799, "EPHEMERIS_TYPE": 0, "CLASSIFICATION_TYPE": "U", "NORAD_CAT_ID": 43207, "ELEMENT_SET_NO": 999, "REV_AT_EPOCH": 5344, "BSTAR": 0, "MEAN_MOTION_DOT": -3.1e-07, "MEAN_MOTION_DDOT": 0}, "tle": {"line1": "1 43207U 18018A   25356.00609688 -.00000031  00000+0  00000+0 0  9995", "line2": "2 43207  56.4932  68.9979 0004170   3.5720 356.4799  1.86231216 53443"}}, "geometry": {"type": "Point", "coordinates": [-119.4689870914233, 12.486476173140856]}}, {"type": "Feature", "properties": {"norad_id": 43208, "name": "BEIDOU-3 M3 (C21)", "group": "beidou", "lat": 46.04971127440849, "lon": -154.37677788355293, "alt_km": 21541.631652205982, "timestamp": "2025-12-23T20:42:37.340960+00:00", "meta": {"OBJECT_NAME": "BEIDOU-3 M3 (C21)", "OBJECT_ID": "2018-018B", "EPOCH": "2025-12-22T14:37:45.965856", "MEAN_MOTION": 1.86231405, "ECCENTRICITY": 0.00070517, "INCLINATION": 56.4931, "RA_OF_ASC_NODE": 68.9821, "ARG_OF_PERICENTER": 313.7983, "MEAN_ANOMALY": 46.1946, "EPHEMERIS_TYPE": 0, "CLASSIFICATION_TYPE": "U", "NORAD_CAT_ID": 43208, "ELEMENT_SET_NO": 999, "REV_AT_EPOCH": 5345, "BSTAR": 0, "MEAN_MOTION_DOT": -2.7e-07, "MEAN_MOTION_DDOT": 0}, "tle": {"line1": "1 43208U 18018B   25356.60955979 -.00000027  00000+0  00000+0 0  9994", "line2": "2 43208  56.4931  68.9821 0007051 313.7983  46.1946  1.86231405 53455"}}, "geometry": {"type": "Point", "coordinates": [-154.37677788355293, 46.04971127440849]}}, {"type": "Feature", "properties": {"norad_id": 43245, "name": "BEIDOU-3 M9 (C29)", "group": "beidou", "lat": -19.84513527792429, "lon": -68.93055194296625, "alt_km": 21527.969424222018, "timestamp": "2025-12-23T20:42:37.340972+00:00", "meta": {"OBJECT_NAME": "BEIDOU-3 M9 (C29)", "OBJECT_ID": "2018-029A", "EPOCH": "2025-12-21T18:02:44.382048", "MEAN_MOTION": 1.8622836, "ECCENTRICITY": 0.00015407, "INCLINATION": 54.3576, "RA_OF_ASC_NODE": 306.1541, "ARG_OF_PERICENTER": 290.4225, "MEAN_ANOMALY": 69.56, "EPHEMERIS_TYPE": 0, "CLASSIFICATION_TYPE": "U", "NORAD_CAT_ID": 43245, "ELEMENT_SET_NO": 999, "REV_AT_EPOCH": 5259, "BSTAR": 0, "MEAN_MOTION_DOT": -5.9e-07, "MEAN_MOTION_DDOT": 0}, "tle": {"line1": "1 43245U 18029A   25355.75190257 -.00000059  00000+0  00000+0 0  9997", "line2": "2 43245  54.3576 306.1541 0001540 290.4225  69.5600  1.86228360 52597"}}, "geometry": {"type": "Point", "coordinates": [-68.93055194296625, -19.84513527792429]}}, {"type": "Feature", "properties": {"norad_id": 43246, "name": "BEIDOU-3 M10 (C30)", "group": "beidou", "lat": 15.163137641476766, "lon": -42.70993184077393, "alt_km": 21514.891600922372, "timestamp": "2025-12-23T20:42:37.340984+00:00", "meta": {"OBJECT_NAME": "BEIDOU-3 M10 (C30)", "OBJECT_ID": "2018-029B", "EPOCH": "2025-12-22T05:22:40.236384", "MEAN_MOTION": 1.86229249, "ECCENTRICITY": 0.0004309, "INCLINATION": 54.3545, "RA_OF_ASC_NODE": 306.1644, "ARG_OF_PERICENTER": 3.3076, "MEAN_ANOMALY": 356.6961, "EPHEMERIS_TYPE": 0, "CLASSIFICATION_TYPE": "U", "NORAD_CAT_ID": 43246, "ELEMENT_SET_NO": 999, "REV_AT_EPOCH": 5258, "BSTAR": 0, "MEAN_MOTION_DOT": -5.7e-07, "MEAN_MOTION_DDOT": 0}, "tle": {"line1": "1 43246U 18029B   25356.22407681 -.00000057  00000+0  00000+0 0  9991", "line2": "2 43246  54.3545 306.1644 0004309   3.3076 356.6961  1.86229249 52585"}}, "geometry": {"type": "Point", "coordinates": [-42.70993184077393, 15.163137641476766]}}, {"type": "Feature", "properties": {"norad_id": 43539, "name": "BEIDOU-2 IGSO-7 (C16)", "group": "beidou", "lat": -8.25336318043016, "lon": 158.75832262137314, "alt_km": 35952.84404274318, "timestamp": "2025-12-23T20:42:37.340996+00:00", "meta": {"OBJECT_NAME": "BEIDOU-2 IGSO-7 (C16)", "OBJECT_ID": "2018-057A", "EPOCH": "2025-12-15T07:47:07.120608", "MEAN_MOTION": 1.00256546, "ECCENTRICITY": 0.00926218, "INCLINATION": 55.1766, "RA_OF_ASC_NODE": 164.6485, "ARG_OF_PERICENTER": 235.2644, "MEAN_ANOMALY": 271.8458, "EPHEMERIS_TYPE": 0, "CLASSIFICATION_TYPE": "U", "NORAD_CAT_ID": 43539, "ELEMENT_SET_NO": 999, "REV_AT_EPOCH": 2728, "BSTAR": 0, "MEAN_MOTION_DOT": -2.3e-07, "MEAN_MOTION_DDOT": 0}, "tle": {"line1": "1 43539U 18057A   25349.32438797 -.00000023  00000+0  00000+0 0  9995", "line2": "2 43539  55.1766 164.6485 0092621 235.2644 271.8458  1.00256546 27289"}}, "geometry": {"type": "Point", "coordinates": [158.75832262137314, -8.25336318043016]}}, {"type": "Feature", "properties": {"norad_id": 43581, "name": "BEIDOU-3 M5 (C23)", "group": "beidou", "lat": -37.13277206313964, "lon": 41.56460228289618, "alt_km": 21536.49804842366, "timestamp": "2025-12-23T20:42:37.341008+00:00", "meta": {"OBJECT_NAME": "BEIDOU-3 M5 (C23)", "OBJECT_ID": "2018-062A", "EPOCH": "2025-12-22T23:39:18.716256", "MEAN_MOTION": 1.86228796, "ECCENTRICITY": 0.00019159, "INCLINATION": 54.09, "RA_OF_ASC_NODE": 188.2947, "ARG_OF_PERICENTER": 2.7152, "MEAN_ANOMALY": 357.3266, "EPHEMERIS_TYPE": 0, "CLASSIFICATION_TYPE": "U", "NORAD_CAT_ID": 43581, "ELEMENT_SET_NO": 999, "REV_AT_EPOCH": 5035, "BSTAR": 0, "MEAN_MOTION_DOT": 9.6e-07, "MEAN_MOTION_DDOT": 0}, "tle": {"line1": "1 43581U 18062A   25356.98563329  .00000096  00000+0  00000+0 0  9997", "line2": "2 43581  54.0900 188.2947 0001915   2.7152 357.3266  1.86228796 50357"}}, "geometry": {"type": "Point", "coordinates": [41.56460228289618, -37.13277206313964]}}, {"type": "Feature", "properties": {"norad_id": 43582, "name": "BEIDOU-3 M6 (C24)", "group": "beidou", "lat": -31.3498448116142, "lon": 162.04582323976413, "alt_km": 21531.418593416423, "timestamp": "2025-12-23T20:42:37.341020+00:00", "meta": {"OBJECT_NAME": "BEIDOU-3 M6 (C24)", "OBJECT_ID": "2018-062B", "EPOCH": "2025-12-21T18:35:38.749056", "MEAN_MOTION": 1.86229862, "ECCENTRICITY": 0.00078412, "INCLINATION": 54.0893, "RA_OF_ASC_NODE": 188.325, "ARG_OF_PERICENTER": 48.2344, "MEAN_ANOMALY": 311.88, "EPHEMERIS_TYPE": 0, "CLASSIFICATION_TYPE": "U", "NORAD_CAT_ID": 43582, "ELEMENT_SET_NO": 999, "REV_AT_EPOCH": 5033, "BSTAR": 0, "MEAN_MOTION_DOT": 9.4e-07, "MEAN_MOTION_DDOT": 0}, "tle": {"line1": "1 43582U 18062B   25355.77475404  .00000094  00000+0  00000+0 0  9998", "line2": "2 43582  54.0893 188.3250 0007841  48.2344 311.8800  1.86229862 50331"}}, "geometry": {"type": "Point", "coordinates": [162.04582323976413, -31.3498448116142]}}, {"type": "Feature", "properties": {"norad_id": 43602, "name": "BEIDOU-3 M12 (C26)", "group": "beidou", "lat": 1.3251660019284277, "lon": -172.05398464622482, "alt_km": 21508.661180892614, "timestamp": "2025-12-23T20:42:37.341031+00:00", "meta": {"OBJECT_NAME": "BEIDOU-3 M12 (C26)", "OBJECT_ID": "2018-067A", "EPOCH": "2025-12-22T18:52:41.106432", "MEAN_MOTION": 1.86227882, "ECCENTRICITY": 0.0009247, "INCLINATION": 54.1835, "RA_OF_ASC_NODE": 187.0221, "ARG_OF_PERICENTER": 41.599, "MEAN_ANOMALY": 318.5103, "EPHEMERIS_TYPE": 0, "CLASSIFICATION_TYPE": "U", "NORAD_CAT_ID": 43602, "ELEMENT_SET_NO": 999, "REV_AT_EPOCH": 4983, "BSTAR": 0, "MEAN_MOTION_DOT": 9.5e-07, "MEAN_MOTION_DDOT": 0}, "tle": {"line1": "1 43602U 18067A   25356.78658688  .00000095  00000+0  00000+0 0  9996", "line2": "2 43602  54.1835 187.0221 0009247  41.5990 318.5103  1.86227882 49833"}}, "geometry": {"type": "Point", "coordinates": [-172.05398464622482, 1.3251660019284277]}}, {"type": "Feature", "properties": {"norad_id": 43603, "name": "BEIDOU-3 M11 (C25)", "group": "beidou", "lat": -54.12295283540907, "lon": 99.41642833253812, "alt_km": 21543.502170930155, "timestamp": "2025-12-23T20:42:37.341042+00:00", "meta": {"OBJECT_NAME": "BEIDOU-3 M11 (C25)", "OBJECT_ID": "2018-067B", "EPOCH": "2025-12-21T20:19:59.001024", "MEAN_MOTION": 1.86227373, "ECCENTRICITY": 0.00056493, "INCLINATION": 54.1806, "RA_OF_ASC_NODE": 187.018, "ARG_OF_PERICENTER": 37.4949, "MEAN_ANOMALY": 322.5886, "EPHEMERIS_TYPE": 0, "CLASSIFICATION_TYPE": "U", "NORAD_CAT_ID": 43603, "ELEMENT_SET_NO": 999, "REV_AT_EPOCH": 4984, "BSTAR": 0, "MEAN_MOTION_DOT": 9.4e-07, "MEAN_MOTION_DDOT": 0}, "tle": {"line1": "1 43603U 18067B   25355.84721066  .00000094  00000+0  00000+0 0  9993", "line2": "2 43603  54.1806 187.0180 0005649  37.4949 322.5886  1.86227373 49845"}}, "geometry": {"type": "Point", "coordinates": [99.41642833253812, -54.12295283540907]}}]}